ONEWEB-0033             
1 45142U 20008M   26201.03879945  .00000272  00000+0  74278-3 0  9993
2 45142  87.8814  29.7287 0002316  94.3515 265.7877 13.10375097312518
ONEWEB-0035             
1 45143U 20008N   26201.05929629  .00000538  00000+0  15036-2 0  9992
2 45143  87.8814  29.7179 0001849  91.1300 269.0039 13.10374991312245
ONEWEB-0036             
1 45144U 20008P   26201.26605514  .00000085  00000+0  20611-3 0  9993
2 45144  87.8836  29.6948 0001682  84.2716 275.8603 13.10377224312695
ONEWEB-0038             
1 45145U 20008Q   26200.97648254 -.00000476  00000+0 -13797-2 0  9991
2 45145  87.8902  14.5521 0002332 137.9072 222.2236 13.11417938314625
ONEWEB-0039             
1 45146U 20008R   26201.04219828  .00000437  00000+0  12159-2 0  9998
2 45146  87.8822  29.7189 0001313  88.5934 271.5344 13.10374857312469
ONEWEB-0040             
1 45147U 20008S   26201.03539616  .00000103  00000+0  25754-3 0  9994
2 45147  87.8819  29.7307 0001788  78.5748 281.5581 13.10375331312165
ONEWEB-0043             
1 45149U 20008U   26201.26629845  .00000101  00000+0  25173-3 0  9998
2 45149  87.8825  29.6744 0001289  85.2748 274.8527 13.10378211312513
ONEWEB-0044             
1 45150U 20008V   26201.21866802  .00000343  00000+0  94592-3 0  9990
2 45150  87.8823  29.6857 0001696  86.5999 273.5322 13.10372837312801
ONEWEB-0045             
1 45151U 20008W   26201.04755294 -.00000550  00000+0 -15883-2 0  9991
2 45151  87.8893  14.5185 0001722  93.6683 266.4642 13.11417112314710
ONEWEB-0047             
1 45152U 20008X   26201.05902932  .00000564  00000+0  15795-2 0  9991
2 45152  87.8822  29.7166 0001971  94.9076 265.2277 13.10371007312503
ONEWEB-0048             
1 45153U 20008Y   26201.28315815  .00000663  00000+0  18616-2 0  9990
2 45153  87.8814  29.6904 0001765  92.7325 267.4004 13.10373943312141
ONEWEB-0049             
1 45154U 20008Z   26201.28639888  .00000657  00000+0  18444-2 0  9992
2 45154  87.8813  29.6787 0001809  75.8427 284.2902 13.10371391312367
ONEWEB-0051             
1 45155U 20008AA  26201.04585490 -.00000435  00000+0 -12632-2 0  9995
2 45155  87.8891  14.5240 0001809  91.5961 268.5374 13.11417603315391
ONEWEB-0052             
1 45156U 20008AB  26201.07796097 -.00000326  00000+0 -97035-3 0  9996
2 45156  87.8819  29.7081 0001662  78.3317 281.7997 13.10372253312247
ONEWEB-0053             
1 45157U 20008AC  26201.26277285 -.00000060  00000+0 -20832-3 0  9997
2 45157  87.8817  29.6910 0001407  80.1165 280.0122 13.10375682312246
ONEWEB-0054             
1 45158U 20008AD  26201.06933879  .00000092  00000+0  22682-3 0  9992
2 45158  87.8816  29.7153 0001827  86.8353 273.2983 13.10372843312339
ONEWEB-0056             
1 45159U 20008AE  26201.26942522  .00000288  00000+0  78863-3 0  9999
2 45159  87.8828  29.6688 0002040  83.7122 276.4238 13.10375616312512
ONEWEB-0057             
1 45160U 20008AF  26201.05760977  .00000645  00000+0  18108-2 0  9992
2 45160  87.8819  29.7225 0001451  75.7910 284.3378 13.10371170312652
ONEWEB-0058             
1 45161U 20008AG  26201.27315257  .00000595  00000+0  16650-2 0  9998
2 45161  87.8815  29.6830 0001941  96.0731 264.0618 13.10541413312753
ONEWEB-0059             
1 45162U 20008AH  26201.26972364  .00000305  00000+0  83839-3 0  9999
2 45162  87.8820  29.6837 0001551  89.5606 270.5699 13.10376888312654
ONEWEB-0062             
1 45163U 20008AJ  26201.06412104  .00000332  00000+0  91365-3 0  9992
2 45163  87.8819  29.7144 0002139  94.4233 265.7139 13.10369863312491
ONEWEB-0065             
1 45164U 20008AK  26201.02166878 -.00000519  00000+0 -15244-2 0  9993
2 45164  87.8823  29.7308 0001746  78.5362 281.5962 13.10373964312181
STARLINK-1143           
1 45179U 20012B   26200.81724178  .00990220  11805-4  50916-3 0  9994
2 45179  53.0259  23.5212 0009879 289.4629  70.5341 16.19638520356858
STARLINK-1202           
1 45183U 20012F   26201.21731795  .00025486  00000+0  68110-3 0  9995
2 45183  53.1540 140.8564 0004728  44.6287 315.5097 15.37938435355282
STARLINK-1216           
1 45185U 20012H   26201.33335648  .00101183  00000+0  23986-2 0  9997
2 45185  53.1540 140.0220 0001789  62.9255  50.9059 15.40949923  5881
STARLINK-1225           
1 45187U 20012K   26201.11905308  .00027801  00000+0  73027-3 0  9997
2 45187  53.1549 141.5235 0004923  51.6471 308.4975 15.38421273355259
STARLINK-1230           
1 45189U 20012M   26201.13398878  .00028696  00000+0  75581-3 0  9999
2 45189  53.1532 141.5607 0004718  50.8134 309.3289 15.38321570352484
STARLINK-1234           
1 45190U 20012N   26200.82723433  .00098040  00000+0  37258-3 0  9994
2 45190  53.0331  29.1393 0003837 281.5105  78.5487 15.86839990356670
STARLINK-1269           
1 45197U 20012V   26201.25807608  .00029220  00000+0  76970-3 0  9994
2 45197  53.1532 140.8097 0003377  61.8530 298.2816 15.38312658355257
STARLINK-1154           
1 45198U 20012W   26200.92287700  .00030253  00000+0  28314-3 0  9990
2 45198  53.0403  88.0276 0004034 105.9588 254.1872 15.67001162355902
